[{"OBJECT_NAME":"FLOCK 4G-22","OBJECT_ID":"2025-009AN","EPOCH":"2026-03-09T22:51:40.689792","MEAN_MOTION":15.2720903,"ECCENTRICITY":8.959e-5,"INCLINATION":97.4046,"RA_OF_ASC_NODE":151.5884,"ARG_OF_PERICENTER":284.1963,"MEAN_ANOMALY":75.9176,"EPHEMERIS_TYPE":0,"CLASSIFICATION_TYPE":"U","NORAD_CAT_ID":62645,"ELEMENT_SET_NO":999,"REV_AT_EPOCH":6376,"BSTAR":0.00049035383,"MEAN_MOTION_DOT":0.00013013,"MEAN_MOTION_DDOT":0},{"OBJECT_NAME":"STARLINK-36508","OBJECT_ID":"2026-005G","EPOCH":"2026-03-09T18:21:01.929024","MEAN_MOTION":15.27606918,"ECCENTRICITY":0.00029463,"INCLINATION":43.0018,"RA_OF_ASC_NODE":237.9375,"ARG_OF_PERICENTER":282.2963,"MEAN_ANOMALY":77.7559,"EPHEMERIS_TYPE":0,"CLASSIFICATION_TYPE":"U","NORAD_CAT_ID":67410,"ELEMENT_SET_NO":999,"REV_AT_EPOCH":870,"BSTAR":0.0012482144,"MEAN_MOTION_DOT":0.00034276,"MEAN_MOTION_DDOT":0}]
